[{"OBJECT_NAME":"ALOS (DAICHI)","OBJECT_ID":"2006-002A","EPOCH":"2026-04-20T08:50:26.227968","MEAN_MOTION":14.69926674,"ECCENTRICITY":0.0001782,"INCLINATION":98.1282,"RA_OF_ASC_NODE":66.1372,"ARG_OF_PERICENTER":109.105,"MEAN_ANOMALY":251.0349,"EPHEMERIS_TYPE":0,"CLASSIFICATION_TYPE":"U","NORAD_CAT_ID":28931,"ELEMENT_SET_NO":999,"REV_AT_EPOCH":7960,"BSTAR":0.00013151851,"MEAN_MOTION_DOT":7.38e-6,"MEAN_MOTION_DDOT":0},{"OBJECT_NAME":"H-2A R/B","OBJECT_ID":"2006-002B","EPOCH":"2026-04-20T08:46:16.842144","MEAN_MOTION":15.17297825,"ECCENTRICITY":0.00525868,"INCLINATION":98.2497,"RA_OF_ASC_NODE":261.0232,"ARG_OF_PERICENTER":99.9451,"MEAN_ANOMALY":260.7722,"EPHEMERIS_TYPE":0,"CLASSIFICATION_TYPE":"U","NORAD_CAT_ID":28932,"ELEMENT_SET_NO":999,"REV_AT_EPOCH":10075,"BSTAR":0.0003194862,"MEAN_MOTION_DOT":6.517e-5,"MEAN_MOTION_DDOT":0},{"OBJECT_NAME":"RESURS-DK 1","OBJECT_ID":"2006-021A","EPOCH":"2026-04-20T09:19:18.451200","MEAN_MOTION":15.12962859,"ECCENTRICITY":0.00028011,"INCLINATION":69.9296,"RA_OF_ASC_NODE":129.1422,"ARG_OF_PERICENTER":351.5764,"MEAN_ANOMALY":8.5355,"EPHEMERIS_TYPE":0,"CLASSIFICATION_TYPE":"U","NORAD_CAT_ID":29228,"ELEMENT_SET_NO":999,"REV_AT_EPOCH":9383,"BSTAR":8.7768401e-5,"MEAN_MOTION_DOT":1.443e-5,"MEAN_MOTION_DDOT":0},{"OBJECT_NAME":"CZ-4B R/B","OBJECT_ID":"2006-046C","EPOCH":"2026-04-20T02:18:04.982400","MEAN_MOTION":15.17304705,"ECCENTRICITY":0.00344501,"INCLINATION":97.5511,"RA_OF_ASC_NODE":154.8863,"ARG_OF_PERICENTER":122.7784,"MEAN_ANOMALY":237.6776,"EPHEMERIS_TYPE":0,"CLASSIFICATION_TYPE":"U","NORAD_CAT_ID":29507,"ELEMENT_SET_NO":999,"REV_AT_EPOCH":6632,"BSTAR":0.00019291579,"MEAN_MOTION_DOT":3.833e-5,"MEAN_MOTION_DDOT":0},{"OBJECT_NAME":"CZ-2C R/B","OBJECT_ID":"2007-010B","EPOCH":"2026-04-20T13:45:35.836416","MEAN_MOTION":14.20260794,"ECCENTRICITY":0.00592642,"INCLINATION":98.4028,"RA_OF_ASC_NODE":221.7623,"ARG_OF_PERICENTER":171.3317,"MEAN_ANOMALY":188.8899,"EPHEMERIS_TYPE":0,"CLASSIFICATION_TYPE":"U","NORAD_CAT_ID":31114,"ELEMENT_SET_NO":999,"REV_AT_EPOCH":98566,"BSTAR":5.16665e-5,"MEAN_MOTION_DOT":7.2e-7,"MEAN_MOTION_DDOT":0},{"OBJECT_NAME":"COSMO-SKYMED 1","OBJECT_ID":"2007-023A","EPOCH":"2026-04-20T13:59:12.840864","MEAN_MOTION":14.96813504,"ECCENTRICITY":0.00010704,"INCLINATION":97.8867,"RA_OF_ASC_NODE":301.9601,"ARG_OF_PERICENTER":93.5541,"MEAN_ANOMALY":266.5802,"EPHEMERIS_TYPE":0,"CLASSIFICATION_TYPE":"U","NORAD_CAT_ID":31598,"ELEMENT_SET_NO":999,"REV_AT_EPOCH":2117,"BSTAR":0.00016693033,"MEAN_MOTION_DOT":1.852e-5,"MEAN_MOTION_DDOT":0},{"OBJECT_NAME":"COSMOS 2428","OBJECT_ID":"2007-029A","EPOCH":"2026-04-20T08:59:20.434848","MEAN_MOTION":14.1294687,"ECCENTRICITY":0.00093205,"INCLINATION":70.9393,"RA_OF_ASC_NODE":115.8497,"ARG_OF_PERICENTER":231.9137,"MEAN_ANOMALY":128.1144,"EPHEMERIS_TYPE":0,"CLASSIFICATION_TYPE":"U","NORAD_CAT_ID":31792,"ELEMENT_SET_NO":999,"REV_AT_EPOCH":96998,"BSTAR":-7.6072651e-5,"MEAN_MOTION_DOT":-1.9e-6,"MEAN_MOTION_DDOT":0},{"OBJECT_NAME":"SL-16 R/B","OBJECT_ID":"2007-029B","EPOCH":"2026-04-20T08:45:46.124352","MEAN_MOTION":14.14842134,"ECCENTRICITY":0.00026032,"INCLINATION":70.9734,"RA_OF_ASC_NODE":84.7772,"ARG_OF_PERICENTER":269.5337,"MEAN_ANOMALY":240.8221,"EPHEMERIS_TYPE":0,"CLASSIFICATION_TYPE":"U","NORAD_CAT_ID":31793,"ELEMENT_SET_NO":999,"REV_AT_EPOCH":97126,"BSTAR":8.8821541e-5,"MEAN_MOTION_DOT":1.24e-6,"MEAN_MOTION_DDOT":0},{"OBJECT_NAME":"KORONAS-FOTON","OBJECT_ID":"2009-003A","EPOCH":"2026-04-20T08:59:04.224480","MEAN_MOTION":15.44436099,"ECCENTRICITY":0.00102522,"INCLINATION":82.431,"RA_OF_ASC_NODE":232.5006,"ARG_OF_PERICENTER":11.4264,"MEAN_ANOMALY":348.7214,"EPHEMERIS_TYPE":0,"CLASSIFICATION_TYPE":"U","NORAD_CAT_ID":33504,"ELEMENT_SET_NO":999,"REV_AT_EPOCH":95217,"BSTAR":0.00017806958,"MEAN_MOTION_DOT":8.287e-5,"MEAN_MOTION_DDOT":0},{"OBJECT_NAME":"CZ-2C R/B","OBJECT_ID":"2011-030B","EPOCH":"2026-04-20T10:26:33.632736","MEAN_MOTION":14.81345339,"ECCENTRICITY":0.00515266,"INCLINATION":97.861,"RA_OF_ASC_NODE":66.8868,"ARG_OF_PERICENTER":213.1368,"MEAN_ANOMALY":260.612,"EPHEMERIS_TYPE":0,"CLASSIFICATION_TYPE":"U","NORAD_CAT_ID":37731,"ELEMENT_SET_NO":999,"REV_AT_EPOCH":79627,"BSTAR":8.12987e-5,"MEAN_MOTION_DOT":5.94e-6,"MEAN_MOTION_DDOT":0},{"OBJECT_NAME":"H-2A R/B","OBJECT_ID":"2012-025E","EPOCH":"2026-04-20T08:24:59.622912","MEAN_MOTION":14.95419884,"ECCENTRICITY":0.00442133,"INCLINATION":98.4796,"RA_OF_ASC_NODE":80.7604,"ARG_OF_PERICENTER":174.4958,"MEAN_ANOMALY":185.6756,"EPHEMERIS_TYPE":0,"CLASSIFICATION_TYPE":"U","NORAD_CAT_ID":38341,"ELEMENT_SET_NO":999,"REV_AT_EPOCH":75444,"BSTAR":0.00012037831,"MEAN_MOTION_DOT":1.286e-5,"MEAN_MOTION_DDOT":0},{"OBJECT_NAME":"SHIJIAN-16 (SJ-16)","OBJECT_ID":"2013-057A","EPOCH":"2026-04-20T14:14:19.997664","MEAN_MOTION":14.92462858,"ECCENTRICITY":0.00159728,"INCLINATION":74.9698,"RA_OF_ASC_NODE":105.7512,"ARG_OF_PERICENTER":5.1443,"MEAN_ANOMALY":354.9906,"EPHEMERIS_TYPE":0,"CLASSIFICATION_TYPE":"U","NORAD_CAT_ID":39358,"ELEMENT_SET_NO":999,"REV_AT_EPOCH":67775,"BSTAR":2.9044204e-5,"MEAN_MOTION_DOT":2.69e-6,"MEAN_MOTION_DDOT":0},{"OBJECT_NAME":"SL-4 R/B","OBJECT_ID":"2014-021B","EPOCH":"2026-04-20T08:33:30.138048","MEAN_MOTION":15.40551989,"ECCENTRICITY":0.00929543,"INCLINATION":51.6049,"RA_OF_ASC_NODE":133.7821,"ARG_OF_PERICENTER":255.3775,"MEAN_ANOMALY":103.6888,"EPHEMERIS_TYPE":0,"CLASSIFICATION_TYPE":"U","NORAD_CAT_ID":39679,"ELEMENT_SET_NO":999,"REV_AT_EPOCH":66269,"BSTAR":0.00017693812,"MEAN_MOTION_DOT":8.058e-5,"MEAN_MOTION_DDOT":0},{"OBJECT_NAME":"ALOS-2","OBJECT_ID":"2014-029A","EPOCH":"2026-04-20T14:00:24.322176","MEAN_MOTION":14.79462799,"ECCENTRICITY":0.00018001,"INCLINATION":97.9205,"RA_OF_ASC_NODE":208.5723,"ARG_OF_PERICENTER":88.3747,"MEAN_ANOMALY":271.7671,"EPHEMERIS_TYPE":0,"CLASSIFICATION_TYPE":"U","NORAD_CAT_ID":39766,"ELEMENT_SET_NO":999,"REV_AT_EPOCH":64306,"BSTAR":8.5536077e-5,"MEAN_MOTION_DOT":5.87e-6,"MEAN_MOTION_DDOT":0},{"OBJECT_NAME":"YAOGAN-29","OBJECT_ID":"2015-069A","EPOCH":"2026-04-20T15:02:15.786240","MEAN_MOTION":14.83036407,"ECCENTRICITY":0.00013657,"INCLINATION":98.0075,"RA_OF_ASC_NODE":139.1569,"ARG_OF_PERICENTER":150.311,"MEAN_ANOMALY":209.8181,"EPHEMERIS_TYPE":0,"CLASSIFICATION_TYPE":"U","NORAD_CAT_ID":41038,"ELEMENT_SET_NO":999,"REV_AT_EPOCH":56209,"BSTAR":4.8593176e-5,"MEAN_MOTION_DOT":3.41e-6,"MEAN_MOTION_DDOT":0},{"OBJECT_NAME":"ASTRO-H (HITOMI)","OBJECT_ID":"2016-012A","EPOCH":"2026-04-20T06:36:10.954656","MEAN_MOTION":15.10245151,"ECCENTRICITY":0.0009467,"INCLINATION":30.9986,"RA_OF_ASC_NODE":88.1278,"ARG_OF_PERICENTER":29.467,"MEAN_ANOMALY":330.65,"EPHEMERIS_TYPE":0,"CLASSIFICATION_TYPE":"U","NORAD_CAT_ID":41337,"ELEMENT_SET_NO":999,"REV_AT_EPOCH":55852,"BSTAR":0.00011301,"MEAN_MOTION_DOT":1.991e-5,"MEAN_MOTION_DDOT":0},{"OBJECT_NAME":"HXMT (HUIYAN)","OBJECT_ID":"2017-034A","EPOCH":"2026-04-20T13:37:30.442080","MEAN_MOTION":15.17957771,"ECCENTRICITY":0.00307507,"INCLINATION":43.013,"RA_OF_ASC_NODE":143.7497,"ARG_OF_PERICENTER":141.6724,"MEAN_ANOMALY":218.6317,"EPHEMERIS_TYPE":0,"CLASSIFICATION_TYPE":"U","NORAD_CAT_ID":42758,"ELEMENT_SET_NO":999,"REV_AT_EPOCH":48890,"BSTAR":0.00014610563,"MEAN_MOTION_DOT":2.812e-5,"MEAN_MOTION_DDOT":0}]
