{"fetched_at":"2026-04-21T02:26:57Z","count":1496,"tles":[{"name":"SHIJIAN-16 (SJ-16)","line1":"1 39358U 13057A   26110.59328701  .00000269  00000+0  29044-4 0  9998","line2":"2 39358  74.9698 105.7512 0015972   5.1443 354.9906 14.92462858677752","category":"Other"},{"name":"YAOGAN-29","line1":"1 41038U 15069A   26110.62657160  .00000341  00000+0  48593-4 0  9990","line2":"2 41038  98.0075 139.1569 0001365 150.3110 209.8181 14.83036407562094","category":"Other"},{"name":"H-2A R/B","line1":"1 38341U 12025E   26110.35069008  .00001286  00000+0  12038-3 0  9993","line2":"2 38341  98.4796  80.7604 0044213 174.4958 185.6756 14.95419884754446","category":"Other"},{"name":"KORONAS-FOTON","line1":"1 33504U 09003A   26110.37435445  .00008287  00000+0  17807-3 0  9992","line2":"2 33504  82.4310 232.5006 0010252  11.4264 348.7214 15.44436099952179","category":"Other"},{"name":"ASTRO-H (HITOMI)","line1":"1 41337U 16012A   26110.27512679  .00001991  00000+0  11301-3 0  9995","line2":"2 41337  30.9986  88.1278 0009467  29.4670 330.6500 15.10245151558520","category":"Other"},{"name":"CZ-2C R/B","line1":"1 37731U 11030B   26110.43511149  .00000594  00000+0  81299-4 0  9994","line2":"2 37731  97.8610  66.8868 0051526 213.1368 260.6120 14.81345339796278","category":"Other"},{"name":"SL-16 R/B","line1":"1 31793U 07029B   26110.36511718  .00000124  00000+0  88822-4 0  9991","line2":"2 31793  70.9734  84.7772 0002603 269.5337 240.8221 14.14842134971262","category":"Other"},{"name":"ALOS (DAICHI)","line1":"1 28931U 06002A   26110.36835912  .00000738  00000+0  13152-3 0  9990","line2":"2 28931  98.1282  66.1372 0001782 109.1050 251.0349 14.69926674 79604","category":"Other"},{"name":"CZ-2C R/B","line1":"1 31114U 07010B   26110.57333144  .00000072  00000+0  51666-4 0  9994","line2":"2 31114  98.4028 221.7623 0059264 171.3317 188.8899 14.20260794985665","category":"Other"},{"name":"H-2A R/B","line1":"1 28932U 06002B   26110.36547271  .00006517  00000+0  31949-3 0  9994","line2":"2 28932  98.2497 261.0232 0052586  99.9451 260.7722 15.17297825100750","category":"Other"},{"name":"RESURS-DK 1","line1":"1 29228U 06021A   26110.38840800  .00001443  00000+0  87768-4 0  9994","line2":"2 29228  69.9296 129.1422 0002801 351.5764   8.5355 15.12962859 93836","category":"Other"},{"name":"CZ-4B R/B","line1":"1 29507U 06046C   26110.09589100  .00003833  00000+0  19292-3 0  9993","line2":"2 29507  97.5511 154.8863 0034450 122.7784 237.6776 15.17304705 66323","category":"Other"},{"name":"COSMOS 2428","line1":"1 31792U 07029A   26110.37454207 -.00000190  00000+0 -76073-4 0  9990","line2":"2 31792  70.9393 115.8497 0009320 231.9137 128.1144 14.12946870969984","category":"Other"},{"name":"HXMT (HUIYAN)","line1":"1 42758U 17034A   26110.56771345  .00002812  00000+0  14611-3 0  9997","line2":"2 42758  43.0130 143.7497 0030750 141.6724 218.6317 15.17957771488901","category":"Other"},{"name":"COSMO-SKYMED 1","line1":"1 31598U 07023A   26110.58278751  .00001852  00000+0  16693-3 0  9994","line2":"2 31598  97.8867 301.9601 0001070  93.5541 266.5802 14.96813504 21179","category":"Other"},{"name":"ALOS-2","line1":"1 39766U 14029A   26110.58361484  .00000587  00000+0  85536-4 0  9996","line2":"2 39766  97.9205 208.5723 0001800  88.3747 271.7671 14.79462799643066","category":"Other"},{"name":"SL-4 R/B","line1":"1 39679U 14021B   26110.35659882  .00008058  00000+0  17694-3 0  9998","line2":"2 39679  51.6049 133.7821 0092954 255.3775 103.6888 15.40551989662699","category":"Other"}]}